{"type": "FeatureCollection", "features": [{"type": "Feature", "properties": {"norad_id": 36828, "name": "BEIDOU-2 IGSO-1 (C06)", "group": "beidou", "lat": -47.44387202193664, "lon": 36.34661896237107, "alt_km": 35601.76710682965, "timestamp": "2025-12-09T14:52:26.426768+00:00", "meta": {"OBJECT_NAME": "BEIDOU-2 IGSO-1 (C06)", "OBJECT_ID": "2010-036A", "EPOCH": "2025-12-08T22:40:34.354848", "MEAN_MOTION": 1.00277328, "ECCENTRICITY": 0.0051252, "INCLINATION": 54.2862, "RA_OF_ASC_NODE": 164.6817, "ARG_OF_PERICENTER": 215.9151, "MEAN_ANOMALY": 145.3362, "EPHEMERIS_TYPE": 0, "CLASSIFICATION_TYPE": "U", "NORAD_CAT_ID": 36828, "ELEMENT_SET_NO": 999, "REV_AT_EPOCH": 5619, "BSTAR": 0, "MEAN_MOTION_DOT": -6.9e-07, "MEAN_MOTION_DDOT": 0}, "tle": {"line1": "1 36828U 10036A   25342.94484207 -.00000069  00000+0  00000+0 0  9995", "line2": "2 36828  54.2862 164.6817 0051252 215.9151 145.3362  1.00277328 56193"}}, "geometry": {"type": "Point", "coordinates": [36.34661896237107, -47.44387202193664]}}, {"type": "Feature", "properties": {"norad_id": 37210, "name": "BEIDOU-2 G4 (C04)", "group": "beidou", "lat": 1.6919092629482666, "lon": 101.70188381500303, "alt_km": 35829.095403033345, "timestamp": "2025-12-09T14:52:26.426792+00:00", "meta": {"OBJECT_NAME": "BEIDOU-2 G4 (C04)", "OBJECT_ID": "2010-057A", "EPOCH": "2025-12-09T04:03:41.248224", "MEAN_MOTION": 1.002712, "ECCENTRICITY": 0.00109789, "INCLINATION": 3.1754, "RA_OF_ASC_NODE": 69.9401, "ARG_OF_PERICENTER": 189.6703, "MEAN_ANOMALY": 39.5481, "EPHEMERIS_TYPE": 0, "CLASSIFICATION_TYPE": "U", "NORAD_CAT_ID": 37210, "ELEMENT_SET_NO": 999, "REV_AT_EPOCH": 5538, "BSTAR": 0, "MEAN_MOTION_DOT": -1.1e-06, "MEAN_MOTION_DDOT": 0}, "tle": {"line1": "1 37210U 10057A   25343.16922741 -.00000110  00000+0  00000+0 0  9996", "line2": "2 37210   3.1754  69.9401 0010978 189.6703  39.5481  1.00271200 55387"}}, "geometry": {"type": "Point", "coordinates": [101.70188381500303, 1.6919092629482666]}}, {"type": "Feature", "properties": {"norad_id": 37256, "name": "BEIDOU-2 IGSO-2 (C07)", "group": "beidou", "lat": 31.99237660418435, "lon": 59.844980847822484, "alt_km": 35746.987967670495, "timestamp": "2025-12-09T14:52:26.426808+00:00", "meta": {"OBJECT_NAME": "BEIDOU-2 IGSO-2 (C07)", "OBJECT_ID": "2010-068A", "EPOCH": "2025-12-03T17:22:36.027840", "MEAN_MOTION": 1.0028872, "ECCENTRICITY": 0.00492449, "INCLINATION": 47.9042, "RA_OF_ASC_NODE": 274.2614, "ARG_OF_PERICENTER": 216.1411, "MEAN_ANOMALY": 310.24, "EPHEMERIS_TYPE": 0, "CLASSIFICATION_TYPE": "U", "NORAD_CAT_ID": 37256, "ELEMENT_SET_NO": 999, "REV_AT_EPOCH": 5483, "BSTAR": 0, "MEAN_MOTION_DOT": -2.25e-06, "MEAN_MOTION_DDOT": 0}, "tle": {"line1": "1 37256U 10068A   25337.72402810 -.00000225  00000+0  00000+0 0  9990", "line2": "2 37256  47.9042 274.2614 0049244 216.1411 310.2400  1.00288720 54834"}}, "geometry": {"type": "Point", "coordinates": [59.844980847822484, 31.99237660418435]}}, {"type": "Feature", "properties": {"norad_id": 37384, "name": "BEIDOU-2 IGSO-3 (C08)", "group": "beidou", "lat": 6.458189058318075, "lon": 45.40654772272478, "alt_km": 35935.32996249159, "timestamp": "2025-12-09T14:52:26.426822+00:00", "meta": {"OBJECT_NAME": "BEIDOU-2 IGSO-3 (C08)", "OBJECT_ID": "2011-013A", "EPOCH": "2025-12-07T14:00:04.361184", "MEAN_MOTION": 1.00271435, "ECCENTRICITY": 0.0035334, "INCLINATION": 62.1366, "RA_OF_ASC_NODE": 41.9657, "ARG_OF_PERICENTER": 187.0632, "MEAN_ANOMALY": 165.2408, "EPHEMERIS_TYPE": 0, "CLASSIFICATION_TYPE": "U", "NORAD_CAT_ID": 37384, "ELEMENT_SET_NO": 999, "REV_AT_EPOCH": 5373, "BSTAR": 0, "MEAN_MOTION_DOT": -1.91e-06, "MEAN_MOTION_DDOT": 0}, "tle": {"line1": "1 37384U 11013A   25341.58338381 -.00000191  00000+0  00000+0 0  9995", "line2": "2 37384  62.1366  41.9657 0035334 187.0632 165.2408  1.00271435 53735"}}, "geometry": {"type": "Point", "coordinates": [45.40654772272478, 6.458189058318075]}}, {"type": "Feature", "properties": {"norad_id": 37763, "name": "BEIDOU-2 IGSO-4 (C09)", "group": "beidou", "lat": -37.66136457920271, "lon": 20.73357701975683, "alt_km": 35159.638196304964, "timestamp": "2025-12-09T14:52:26.426836+00:00", "meta": {"OBJECT_NAME": "BEIDOU-2 IGSO-4 (C09)", "OBJECT_ID": "2011-038A", "EPOCH": "2025-12-01T12:32:09.960864", "MEAN_MOTION": 1.00284084, "ECCENTRICITY": 0.01488084, "INCLINATION": 54.5806, "RA_OF_ASC_NODE": 167.4476, "ARG_OF_PERICENTER": 230.2017, "MEAN_ANOMALY": 315.0405, "EPHEMERIS_TYPE": 0, "CLASSIFICATION_TYPE": "U", "NORAD_CAT_ID": 37763, "ELEMENT_SET_NO": 999, "REV_AT_EPOCH": 5266, "BSTAR": 0, "MEAN_MOTION_DOT": 1.01e-06, "MEAN_MOTION_DDOT": 0}, "tle": {"line1": "1 37763U 11038A   25335.52233751  .00000101  00000+0  00000+0 0  9995", "line2": "2 37763  54.5806 167.4476 0148808 230.2017 315.0405  1.00284084 52669"}}, "geometry": {"type": "Point", "coordinates": [20.73357701975683, -37.66136457920271]}}, {"type": "Feature", "properties": {"norad_id": 37948, "name": "BEIDOU-2 IGSO-5 (C10)", "group": "beidou", "lat": 40.4025261723108, "lon": 43.997094440931306, "alt_km": 35873.348077633054, "timestamp": "2025-12-09T14:52:26.426849+00:00", "meta": {"OBJECT_NAME": "BEIDOU-2 IGSO-5 (C10)", "OBJECT_ID": "2011-073A", "EPOCH": "2025-12-07T19:12:14.882400", "MEAN_MOTION": 1.00291658, "ECCENTRICITY": 0.01104068, "INCLINATION": 48.0298, "RA_OF_ASC_NODE": 273.9181, "ARG_OF_PERICENTER": 222.1784, "MEAN_ANOMALY": 321.4594, "EPHEMERIS_TYPE": 0, "CLASSIFICATION_TYPE": "U", "NORAD_CAT_ID": 37948, "ELEMENT_SET_NO": 999, "REV_AT_EPOCH": 5121, "BSTAR": 0, "MEAN_MOTION_DOT": -1.91e-06, "MEAN_MOTION_DDOT": 0}, "tle": {"line1": "1 37948U 11073A   25341.80017225 -.00000191  00000+0  00000+0 0  9993", "line2": "2 37948  48.0298 273.9181 0110406 222.1784 321.4594  1.00291658 51212"}}, "geometry": {"type": "Point", "coordinates": [43.997094440931306, 40.4025261723108]}}, {"type": "Feature", "properties": {"norad_id": 38091, "name": "BEIDOU-2 G5 (C05)", "group": "beidou", "lat": -2.9119477437620924, "lon": 0.6231392301315216, "alt_km": 35762.55994974459, "timestamp": "2025-12-09T14:52:26.426862+00:00", "meta": {"OBJECT_NAME": "BEIDOU-2 G5 (C05)", "OBJECT_ID": "2012-008A", "EPOCH": "2025-12-09T03:34:44.021568", "MEAN_MOTION": 1.00274149, "ECCENTRICITY": 0.00125198, "INCLINATION": 3.1, "RA_OF_ASC_NODE": 70.7096, "ARG_OF_PERICENTER": 226.0989, "MEAN_ANOMALY": 253.7636, "EPHEMERIS_TYPE": 0, "CLASSIFICATION_TYPE": "U", "NORAD_CAT_ID": 38091, "ELEMENT_SET_NO": 999, "REV_AT_EPOCH": 5046, "BSTAR": 0, "MEAN_MOTION_DOT": 5.8e-07, "MEAN_MOTION_DDOT": 0}, "tle": {"line1": "1 38091U 12008A   25343.14912062  .00000058  00000+0  00000+0 0  9995", "line2": "2 38091   3.1000  70.7096 0012519 226.0989 253.7636  1.00274149 50465"}}, "geometry": {"type": "Point", "coordinates": [0.6231392301315216, -2.9119477437620924]}}, {"type": "Feature", "properties": {"norad_id": 38250, "name": "BEIDOU-2 M3 (C11)", "group": "beidou", "lat": -12.56206588032403, "lon": -57.42563429138807, "alt_km": 21507.73452572289, "timestamp": "2025-12-09T14:52:26.426874+00:00", "meta": {"OBJECT_NAME": "BEIDOU-2 M3 (C11)", "OBJECT_ID": "2012-018A", "EPOCH": "2025-12-09T02:31:53.120352", "MEAN_MOTION": 1.86229518, "ECCENTRICITY": 0.00244853, "INCLINATION": 55.923, "RA_OF_ASC_NODE": 311.2799, "ARG_OF_PERICENTER": 273.6556, "MEAN_ANOMALY": 86.0527, "EPHEMERIS_TYPE": 0, "CLASSIFICATION_TYPE": "U", "NORAD_CAT_ID": 38250, "ELEMENT_SET_NO": 999, "REV_AT_EPOCH": 9240, "BSTAR": 0, "MEAN_MOTION_DOT": -7.5e-07, "MEAN_MOTION_DDOT": 0}, "tle": {"line1": "1 38250U 12018A   25343.10547593 -.00000075  00000+0  00000+0 0  9992", "line2": "2 38250  55.9230 311.2799 0024485 273.6556  86.0527  1.86229518 92408"}}, "geometry": {"type": "Point", "coordinates": [-57.42563429138807, -12.56206588032403]}}, {"type": "Feature", "properties": {"norad_id": 38251, "name": "BEIDOU-2 M4 (C12)", "group": "beidou", "lat": 24.701808430474017, "lon": -31.327052758068014, "alt_km": 21542.6943687351, "timestamp": "2025-12-09T14:52:26.426885+00:00", "meta": {"OBJECT_NAME": "BEIDOU-2 M4 (C12)", "OBJECT_ID": "2012-018B", "EPOCH": "2025-12-09T00:54:01.831680", "MEAN_MOTION": 1.86229294, "ECCENTRICITY": 0.00156482, "INCLINATION": 55.8248, "RA_OF_ASC_NODE": 310.5114, "ARG_OF_PERICENTER": 276.694, "MEAN_ANOMALY": 83.1162, "EPHEMERIS_TYPE": 0, "CLASSIFICATION_TYPE": "U", "NORAD_CAT_ID": 38251, "ELEMENT_SET_NO": 999, "REV_AT_EPOCH": 9240, "BSTAR": 0, "MEAN_MOTION_DOT": -7.4e-07, "MEAN_MOTION_DDOT": 0}, "tle": {"line1": "1 38251U 12018B   25343.03752120 -.00000074  00000+0  00000+0 0  9998", "line2": "2 38251  55.8248 310.5114 0015648 276.6940  83.1162  1.86229294 92405"}}, "geometry": {"type": "Point", "coordinates": [-31.327052758068014, 24.701808430474017]}}, {"type": "Feature", "properties": {"norad_id": 38775, "name": "BEIDOU-2 M6 (C14)", "group": "beidou", "lat": -35.39396765517404, "lon": -82.64682301962986, "alt_km": 21548.498722570086, "timestamp": "2025-12-09T14:52:26.426897+00:00", "meta": {"OBJECT_NAME": "BEIDOU-2 M6 (C14)", "OBJECT_ID": "2012-050B", "EPOCH": "2025-12-08T05:04:33.479040", "MEAN_MOTION": 1.86230723, "ECCENTRICITY": 0.00110356, "INCLINATION": 56.3747, "RA_OF_ASC_NODE": 69.2178, "ARG_OF_PERICENTER": 345.3738, "MEAN_ANOMALY": 14.6151, "EPHEMERIS_TYPE": 0, "CLASSIFICATION_TYPE": "U", "NORAD_CAT_ID": 38775, "ELEMENT_SET_NO": 999, "REV_AT_EPOCH": 8975, "BSTAR": 0, "MEAN_MOTION_DOT": -4.4e-07, "MEAN_MOTION_DDOT": 0}, "tle": {"line1": "1 38775U 12050B   25342.21149860 -.00000044  00000+0  00000+0 0  9992", "line2": "2 38775  56.3747  69.2178 0011035 345.3738  14.6151  1.86230723 89759"}}, "geometry": {"type": "Point", "coordinates": [-82.64682301962986, -35.39396765517404]}}]}